$$SOE
2459580.500000000, A.D. 2022-Jan-01 00:00:00.0000, -2.822560187014160E+08, -3.095195105397574E+08, 1.923066367397875E+06,
2459587.500000000, A.D. 2022-Jan-08 00:00:00.0000, -2.739865192894837E+08, -3.173650318308645E+08, 1.522834125516772E+06,
2459594.500000000, A.D. 2022-Jan-15 00:00:00.0000, -2.655366014075038E+08, -3.250015295018697E+08, 1.121599485294253E+06,
2459601.500000000, A.D. 2022-Jan-22 00:00:00.0000, -2.569123394223913E+08, -3.324246043146836E+08, 7.196284809657484E+05,
2459608.500000000, A.D. 2022-Jan-29 00:00:00.0000, -2.481199264197900E+08, -3.396300728173710E+08, 3.171862892256826E+05,
2459615.500000000, A.D. 2022-Feb-05 00:00:00.0000, -2.391656665249261E+08, -3.466139714017864E+08, -8.546297959360480E+04,
2459622.500000000, A.D. 2022-Feb-12 00:00:00.0000, -2.300559649679709E+08, -3.533725608788816E+08, -4.880567667001337E+05,
2459629.500000000, A.D. 2022-Feb-19 00:00:00.0000, -2.207973172561763E+08, -3.599023292053325E+08, -8.903345102537274E+05,
2459636.500000000, A.D. 2022-Feb-26 00:00:00.0000, -2.113962988000095E+08, -3.661999930885417E+08, -1.292037988952711E+06,
2459643.500000000, A.D. 2022-Mar-05 00:00:00.0000, -2.018595548682575E+08, -3.722624990934589E+08, -1.692911628204793E+06,
2459650.500000000, A.D. 2022-Mar-12 00:00:00.0000, -1.921937906832018E+08, -3.780870243265868E+08, -2.092702794205844E+06,
2459657.500000000, A.D. 2022-Mar-19 00:00:00.0000, -1.824057616170106E+08, -3.836709766818540E+08, -2.491162079859227E+06,
2459664.500000000, A.D. 2022-Mar-26 00:00:00.0000, -1.725022634986581E+08, -3.890119946689360E+08, -2.888043584732652E+06,
2459671.500000000, A.D. 2022-Apr-02 00:00:00.0000, -1.624901229939654E+08, -3.941079468950859E+08, -3.283105199425519E+06,
2459678.500000000, A.D. 2022-Apr-09 00:00:00.0000, -1.523761878145140E+08, -3.989569312111226E+08, -3.676108918510437E+06,
2459685.500000000, A.D. 2022-Apr-16 00:00:00.0000, -1.421673164227650E+08, -4.035572728840852E+08, -4.066821161075115E+06,
2459692.500000000, A.D. 2022-Apr-23 00:00:00.0000, -1.318703685234941E+08, -4.079075207310183E+08, -4.455012893773168E+06,
2459699.500000000, A.D. 2022-Apr-30 00:00:00.0000, -1.214921982304068E+08, -4.120064434809488E+08, -4.840459568480134E+06,
2459706.500000000, A.D. 2022-May-07 00:00:00.0000, -1.110396468631965E+08, -4.158530283645641E+08, -5.222941317049533E+06,
2459713.500000000, A.D. 2022-May-14 00:00:00.0000, -1.005195340043928E+08, -4.194464789214417E+08, -5.602243282466769E+06,
2459720.500000000, A.D. 2022-May-21 00:00:00.0000, -8.993864886503254E+07, -4.227862112925147E+08, -5.978155838057518E+06,
2459727.500000000, A.D. 2022-May-28 00:00:00.0000, -7.930374245333087E+07, -4.258718499808742E+08, -6.350474729149133E+06,
2459734.500000000, A.D. 2022-Jun-04 00:00:00.0000, -6.862152028156273E+07, -4.287032234168808E+08, -6.719001188212007E+06,
2459741.500000000, A.D. 2022-Jun-11 00:00:00.0000, -5.789863547566291E+07, -4.312803593480821E+08, -7.083542036733747E+06,
2459748.500000000, A.D. 2022-Jun-18 00:00:00.0000, -4.714168225511484E+07, -4.336034800636889E+08, -7.443909776545465E+06,
2459755.500000000, A.D. 2022-Jun-25 00:00:00.0000, -3.635718975774847E+07, -4.356729975107155E+08, -7.799922676279306E+06,
2459762.500000000, A.D. 2022-Jul-02 00:00:00.0000, -2.555161607793630E+07, -4.374895083920574E+08, -8.151404870863110E+06,
2459769.500000000, A.D. 2022-Jul-09 00:00:00.0000, -1.473134212916762E+07, -4.390537890941363E+08, -8.498186495623618E+06,
2459776.500000000, A.D. 2022-Jul-16 00:00:00.0000, -3.902665386278688E+06, -4.403667893854638E+08, -8.840103761719733E+06,
2459783.500000000, A.D. 2022-Jul-23 00:00:00.0000, 6.928204295328449E+06, -4.414296248312140E+08, -9.176998765229851E+06,
2459790.500000000, A.D. 2022-Jul-30 00:00:00.0000, 1.775514687046195E+07, -4.422435712991143E+08, -9.508719312117249E+06,
2459797.500000000, A.D. 2022-Aug-06 00:00:00.0000, 2.857213590818946E+07, -4.428100609303021E+08, -9.835119036660731E+06,
2459804.500000000, A.D. 2022-Aug-13 00:00:00.0000, 3.937324319095293E+07, -4.431306768423908E+08, -1.015605751308763E+07,
2459811.500000000, A.D. 2022-Aug-20 00:00:00.0000, 5.015264254505067E+07, -4.432071470879452E+08, -1.047140025788483E+07,
2459818.500000000, A.D. 2022-Aug-27 00:00:00.0000, 6.090461297741158E+07, -4.430413386129922E+08, -1.078101868873149E+07,
2459825.500000000, A.D. 2022-Sep-03 00:00:00.0000, 7.162354137437786E+07, -4.426352513428425E+08, -1.108479007220867E+07,
2459832.500000000, A.D. 2022-Sep-10 00:00:00.0000, 8.230392486131273E+07, -4.419910123867165E+08, -1.138259746705687E+07,
2459839.500000000, A.D. 2022-Sep-17 00:00:00.0000, 9.294037286223792E+07, -4.411108703771719E+08, -1.167432966640383E+07,
2459846.500000000, A.D. 2022-Sep-24 00:00:00.0000, 1.035276089307217E+08, -4.399971900089075E+08, -1.195988114931899E+07,
2459853.500000000, A.D. 2022-Oct-01 00:00:00.0000, 1.140604726032451E+08, -4.386524468126636E+08, -1.223915206621709E+07,
2459860.500000000, A.D. 2022-Oct-08 00:00:00.0000, 1.245339216935256E+08, -4.370792216549467E+08, -1.251204825349778E+07,
2459867.500000000, A.D. 2022-Oct-15 00:00:00.0000, 1.349430341068827E+08, -4.352801937758141E+08, -1.277848109467727E+07,
2459874.500000000, A.D. 2022-Oct-22 00:00:00.0000, 1.452830070039617E+08, -4.332581340577182E+08, -1.303836716630474E+07,
2459881.500000000, A.D. 2022-Oct-29 00:00:00.0000, 1.555491558235179E+08, -4.310159011263137E+08, -1.329162811059722E+07,
2459888.500000000, A.D. 2022-Nov-05 00:00:00.0000, 1.657369152763492E+08, -4.285564375500291E+08, -1.353819070418239E+07,
2459895.500000000, A.D. 2022-Nov-12 00:00:00.0000, 1.758418403579348E+08, -4.258827648791836E+08, -1.377798683988348E+07,
2459902.500000000, A.D. 2022-Nov-19 00:00:00.0000, 1.858596066722594E+08, -4.229979784855611E+08, -1.401095343416879E+07,
2459909.500000000, A.D. 2022-Nov-26 00:00:00.0000, 1.957860103406093E+08, -4.199052426054894E+08, -1.423703231735981E+07,
2459916.500000000, A.D. 2022-Dec-03 00:00:00.0000, 2.056169676724215E+08, -4.166077856027926E+08, -1.445617012325355E+07,
2459923.500000000, A.D. 2022-Dec-10 00:00:00.0000, 2.153485146539886E+08, -4.131088954365138E+08, -1.466831818121544E+07,
2459930.500000000, A.D. 2022-Dec-17 00:00:00.0000, 2.249768062894660E+08, -4.094119153602920E+08, -1.487343241540614E+07,
2459937.500000000, A.D. 2022-Dec-24 00:00:00.0000, 2.344981159135425E+08, -4.055202399195638E+08, -1.507147326688260E+07,
2459944.500000000, A.D. 2022-Dec-31 00:00:00.0000, 2.439088348443156E+08, -4.014373111389665E+08, -1.526240566288719E+07,
2459951.500000000, A.D. 2023-Jan-07 00:00:00.0000, 2.532054725106604E+08, -3.971666139381811E+08, -1.544619896621406E+07,
2459958.500000000, A.D. 2023-Jan-14 00:00:00.0000, 2.623846550981731E+08, -3.927116702807074E+08, -1.562282668390039E+07,
2459965.500000000, A.D. 2023-Jan-21 00:00:00.0000, 2.714431220788448E+08, -3.880760352287146E+08, -1.579226613566837E+07,
2459972.500000000, A.D. 2023-Jan-28 00:00:00.0000, 2.803777243020028E+08, -3.832632950992232E+08, -1.595449843479407E+07,
2459979.500000000, A.D. 2023-Feb-04 00:00:00.0000, 2.891854234473244E+08, -3.782770646940796E+08, -1.610950851500177E+07,
2459986.500000000, A.D. 2023-Feb-11 00:00:00.0000, 2.978632910530058E+08, -3.731209837970432E+08, -1.625728505459806E+07,
2459993.500000000, A.D. 2023-Feb-18 00:00:00.0000, 3.064085070634090E+08, -3.677987137596558E+08, -1.639782035935377E+07,
2460000.500000000, A.D. 2023-Feb-25 00:00:00.0000, 3.148183581663326E+08, -3.623139343353480E+08, -1.653111024147275E+07,
2460007.500000000, A.D. 2023-Mar-04 00:00:00.0000, 3.230902360292451E+08, -3.566703407402551E+08, -1.665715390247589E+07,
2460014.500000000, A.D. 2023-Mar-11 00:00:00.0000, 3.312216354698411E+08, -3.508716409372532E+08, -1.677595382254733E+07,
2460021.500000000, A.D. 2023-Mar-18 00:00:00.0000, 3.392101526142484E+08, -3.449215531892447E+08, -1.688751566465464E+07,
2460028.500000000, A.D. 2023-Mar-25 00:00:00.0000, 3.470534832523701E+08, -3.388238039249876E+08, -1.699184821587914E+07,
2460035.500000000, A.D. 2023-Apr-01 00:00:00.0000, 3.547494218214655E+08, -3.325821255203571E+08, -1.708896337263057E+07,
2460042.500000000, A.D. 2023-Apr-08 00:00:00.0000, 3.622958604091694E+08, -3.262002527674017E+08, -1.717887601304178E+07,
2460049.500000000, A.D. 2023-Apr-15 00:00:00.0000, 3.696907854441260E+08, -3.196819191350051E+08, -1.726160363246608E+07,
2460056.500000000, A.D. 2023-Apr-22 00:00:00.0000, 3.769322738870942E+08, -3.130308558692716E+08, -1.733716615742505E+07,
2460063.500000000, A.D. 2023-Apr-29 00:00:00.0000, 3.840184916616796E+08, -3.062507916761620E+08, -1.740558600481634E+07,
2460070.500000000, A.D. 2023-May-06 00:00:00.0000, 3.909476925692294E+08, -2.993454512015314E+08, -1.746688807944220E+07,
2460077.500000000, A.D. 2023-May-13 00:00:00.0000, 3.977182167153527E+08, -2.923185531988229E+08, -1.752109969341622E+07,
2460084.500000000, A.D. 2023-May-20 00:00:00.0000, 4.043284886858922E+08, -2.851738088720578E+08, -1.756825046926261E+07,
2460091.500000000, A.D. 2023-May-27 00:00:00.0000, 4.107770156691847E+08, -2.779149204200278E+08, -1.760837224711308E+07,
2460098.500000000, A.D. 2023-Jun-03 00:00:00.0000, 4.170623855852830E+08, -2.705455797522168E+08, -1.764149899944517E+07,
2460105.500000000, A.D. 2023-Jun-10 00:00:00.0000, 4.231832652486106E+08, -2.630694673867992E+08, -1.766766675696811E+07,
2460112.500000000, A.D. 2023-Jun-17 00:00:00.0000, 4.291383986552386E+08, -2.554902515872419E+08, -1.768691355903760E+07,
2460119.500000000, A.D. 2023-Jun-24 00:00:00.0000, 4.349266057166862E+08, -2.478115876778632E+08, -1.769927945368072E+07,
2460126.500000000, A.D. 2023-Jul-01 00:00:00.0000, 4.405467816959841E+08, -2.400371167061836E+08, -1.770480650296643E+07,
2460133.500000000, A.D. 2023-Jul-08 00:00:00.0000, 4.459978956753300E+08, -2.321704626271026E+08, -1.770353857311396E+07,
2460140.500000000, A.D. 2023-Jul-15 00:00:00.0000, 4.512789867806988E+08, -2.242152308365573E+08, -1.769552102361052E+07,
$$EOE